{"fetched_at":"2026-04-16T09:18:25Z","count":3196,"tles":[{"name":"TRANSPORTER-16 OBJECT H","line1":"1 68423U 26067H   26104.13319345  .00002796  00000+0  13986-3 0  9999","line2":"2 68423  97.4450  63.5604 0002491 104.0414 256.1097 15.18250080  2224","category":"Other"}]}