{
  "norad_id": 68423,
  "name": "TRANSPORTER-16 OBJECT H",
  "history": [
    {
      "epoch": "2026-04-14T03:11:47.914080Z",
      "apogee_km": 512.8453172781656,
      "perigee_km": 509.41308485679383,
      "latitude_deg": -3.2537268393804744e-06,
      "longitude_deg": 173.2967635106637,
      "height_km": 514.6285104179736,
      "semi_major_axis_km": 6889.266201067479,
      "eccentricity": 0.0002491,
      "inclination_deg": 97.445,
      "raan_deg": 63.5604,
      "arg_perigee_deg": 104.0414,
      "mean_anomaly_deg": 256.1097,
      "mean_motion_rev_day": 15.1825008
    }
  ]
}